[
  {
    "OBJECT_NAME": "STARLINK-5351",
    "OBJECT_ID": "23065J",
    "EPOCH": "2025-11-10T21:27:42.290208",
    "MEAN_MOTION": 15.02538087,
    "ECCENTRICITY": 0.000127,
    "INCLINATION": 43.0024,
    "RA_OF_ASC_NODE": 135.9389,
    "ARG_OF_PERICENTER": 271.0545,
    "MEAN_ANOMALY": 89.0152,
    "EPHEMERIS_TYPE": 0,
    "CLASSIFICATION_TYPE": "U",
    "NORAD_CAT_ID": 56511,
    "ELEMENT_SET_NO": 999,
    "REV_AT_EPOCH": 13875,
    "BSTAR": 6.1009000000000005e-05,
    "MEAN_MOTION_DOT": 6.21e-06,
    "MEAN_MOTION_DDOT": 0.0,
    "TLE_LINE1": "1 56511U 23065J   25314.89423947  .00000621  00000+0  61009-4 0  9993",
    "TLE_LINE2": "2 56511  43.0024 135.9389 0001270 271.0545  89.0152 15.02538087138753",
    "COMMENT": "Grouped by shell and plane from TLE"
  },
  {
    "OBJECT_NAME": "STARLINK-5349",
    "OBJECT_ID": "23065K",
    "EPOCH": "2025-11-10T12:02:55.735008",
    "MEAN_MOTION": 15.02540325,
    "ECCENTRICITY": 9.91e-05,
    "INCLINATION": 43.0022,
    "RA_OF_ASC_NODE": 138.1519,
    "ARG_OF_PERICENTER": 263.2239,
    "MEAN_ANOMALY": 96.8491,
    "EPHEMERIS_TYPE": 0,
    "CLASSIFICATION_TYPE": "U",
    "NORAD_CAT_ID": 56512,
    "ELEMENT_SET_NO": 999,
    "REV_AT_EPOCH": 13869,
    "BSTAR": 0.00011894000000000001,
    "MEAN_MOTION_DOT": 1.404e-05,
    "MEAN_MOTION_DDOT": 0.0,
    "TLE_LINE1": "1 56512U 23065K   25314.50203397  .00001404  00000+0  11894-3 0  9993",
    "TLE_LINE2": "2 56512  43.0022 138.1519 0000991 263.2239  96.8491 15.02540325138697",
    "COMMENT": "Grouped by shell and plane from TLE"
  },
  {
    "OBJECT_NAME": "STARLINK-5329",
    "OBJECT_ID": "23065L",
    "EPOCH": "2025-11-11T05:24:45.019584",
    "MEAN_MOTION": 15.02538008,
    "ECCENTRICITY": 0.0001011,
    "INCLINATION": 43.0014,
    "RA_OF_ASC_NODE": 134.1244,
    "ARG_OF_PERICENTER": 268.3519,
    "MEAN_ANOMALY": 91.7208,
    "EPHEMERIS_TYPE": 0,
    "CLASSIFICATION_TYPE": "U",
    "NORAD_CAT_ID": 56513,
    "ELEMENT_SET_NO": 999,
    "REV_AT_EPOCH": 13880,
    "BSTAR": 5.8216000000000006e-05,
    "MEAN_MOTION_DOT": 5.83e-06,
    "MEAN_MOTION_DDOT": 0.0,
    "TLE_LINE1": "1 56513U 23065L   25315.22552106  .00000583  00000+0  58216-4 0  9996",
    "TLE_LINE2": "2 56513  43.0014 134.1244 0001011 268.3519  91.7208 15.02538008138809",
    "COMMENT": "Grouped by shell and plane from TLE"
  },
  {
    "OBJECT_NAME": "STARLINK-5348",
    "OBJECT_ID": "23065N",
    "EPOCH": "2025-11-11T05:19:57.193536",
    "MEAN_MOTION": 15.02528796,
    "ECCENTRICITY": 0.0001275,
    "INCLINATION": 43.0027,
    "RA_OF_ASC_NODE": 134.1004,
    "ARG_OF_PERICENTER": 265.9506,
    "MEAN_ANOMALY": 94.1191,
    "EPHEMERIS_TYPE": 0,
    "CLASSIFICATION_TYPE": "U",
    "NORAD_CAT_ID": 56515,
    "ELEMENT_SET_NO": 999,
    "REV_AT_EPOCH": 13880,
    "BSTAR": 1.6905e-05,
    "MEAN_MOTION_DOT": 2.5e-07,
    "MEAN_MOTION_DDOT": 0.0,
    "TLE_LINE1": "1 56515U 23065N   25315.22218974  .00000025  00000+0  16905-4 0  9990",
    "TLE_LINE2": "2 56515  43.0027 134.1004 0001275 265.9506  94.1191 15.02528796138801",
    "COMMENT": "Grouped by shell and plane from TLE"
  },
  {
    "OBJECT_NAME": "STARLINK-5342",
    "OBJECT_ID": "23065P",
    "EPOCH": "2025-11-11T05:27:56.537280",
    "MEAN_MOTION": 15.0253683,
    "ECCENTRICITY": 0.0001172,
    "INCLINATION": 43.0035,
    "RA_OF_ASC_NODE": 134.1443,
    "ARG_OF_PERICENTER": 256.918,
    "MEAN_ANOMALY": 103.1531,
    "EPHEMERIS_TYPE": 0,
    "CLASSIFICATION_TYPE": "U",
    "NORAD_CAT_ID": 56516,
    "ELEMENT_SET_NO": 999,
    "REV_AT_EPOCH": 13880,
    "BSTAR": 0.00012501000000000002,
    "MEAN_MOTION_DOT": 1.486e-05,
    "MEAN_MOTION_DDOT": 0.0,
    "TLE_LINE1": "1 56516U 23065P   25315.22773770  .00001486  00000+0  12501-3 0  9990",
    "TLE_LINE2": "2 56516  43.0035 134.1443 0001172 256.9180 103.1531 15.02536830138809",
    "COMMENT": "Grouped by shell and plane from TLE"
  },
  {
    "OBJECT_NAME": "STARLINK-5345",
    "OBJECT_ID": "23065Q",
    "EPOCH": "2025-11-11T05:07:10.032384",
    "MEAN_MOTION": 15.02538613,
    "ECCENTRICITY": 0.0001137,
    "INCLINATION": 43.0024,
    "RA_OF_ASC_NODE": 134.0362,
    "ARG_OF_PERICENTER": 265.1536,
    "MEAN_ANOMALY": 94.9177,
    "EPHEMERIS_TYPE": 0,
    "CLASSIFICATION_TYPE": "U",
    "NORAD_CAT_ID": 56517,
    "ELEMENT_SET_NO": 999,
    "REV_AT_EPOCH": 13880,
    "BSTAR": 4.9078e-05,
    "MEAN_MOTION_DOT": 4.59e-06,
    "MEAN_MOTION_DDOT": 0.0,
    "TLE_LINE1": "1 56517U 23065Q   25315.21331056  .00000459  00000+0  49078-4 0  9996",
    "TLE_LINE2": "2 56517  43.0024 134.0362 0001137 265.1536  94.9177 15.02538613138809",
    "COMMENT": "Grouped by shell and plane from TLE"
  },
  {
    "OBJECT_NAME": "STARLINK-5346",
    "OBJECT_ID": "23065R",
    "EPOCH": "2025-11-11T05:15:11.277792",
    "MEAN_MOTION": 15.02540525,
    "ECCENTRICITY": 0.0001003,
    "INCLINATION": 43.0014,
    "RA_OF_ASC_NODE": 134.0755,
    "ARG_OF_PERICENTER": 268.2519,
    "MEAN_ANOMALY": 91.8208,
    "EPHEMERIS_TYPE": 0,
    "CLASSIFICATION_TYPE": "U",
    "NORAD_CAT_ID": 56518,
    "ELEMENT_SET_NO": 999,
    "REV_AT_EPOCH": 13880,
    "BSTAR": 1.9626e-05,
    "MEAN_MOTION_DOT": 6.2e-07,
    "MEAN_MOTION_DDOT": 0.0,
    "TLE_LINE1": "1 56518U 23065R   25315.21888053  .00000062  00000+0  19626-4 0  9997",
    "TLE_LINE2": "2 56518  43.0014 134.0755 0001003 268.2519  91.8208 15.02540525138808",
    "COMMENT": "Grouped by shell and plane from TLE"
  },
  {
    "OBJECT_NAME": "STARLINK-6313",
    "OBJECT_ID": "23065S",
    "EPOCH": "2025-11-11T05:00:46.464768",
    "MEAN_MOTION": 15.02537418,
    "ECCENTRICITY": 0.0001137,
    "INCLINATION": 43.0017,
    "RA_OF_ASC_NODE": 133.9988,
    "ARG_OF_PERICENTER": 266.8933,
    "MEAN_ANOMALY": 93.1779,
    "EPHEMERIS_TYPE": 0,
    "CLASSIFICATION_TYPE": "U",
    "NORAD_CAT_ID": 56519,
    "ELEMENT_SET_NO": 999,
    "REV_AT_EPOCH": 13880,
    "BSTAR": 4.9286e-05,
    "MEAN_MOTION_DOT": 4.62e-06,
    "MEAN_MOTION_DDOT": 0.0,
    "TLE_LINE1": "1 56519U 23065S   25315.20887112  .00000462  00000+0  49286-4 0  9991",
    "TLE_LINE2": "2 56519  43.0017 133.9988 0001137 266.8933  93.1779 15.02537418138805",
    "COMMENT": "Grouped by shell and plane from TLE"
  },
  {
    "OBJECT_NAME": "STARLINK-6344",
    "OBJECT_ID": "23065T",
    "EPOCH": "2025-11-11T05:10:22.184256",
    "MEAN_MOTION": 15.02536096,
    "ECCENTRICITY": 9.9e-05,
    "INCLINATION": 43.0035,
    "RA_OF_ASC_NODE": 134.0511,
    "ARG_OF_PERICENTER": 268.1697,
    "MEAN_ANOMALY": 91.9032,
    "EPHEMERIS_TYPE": 0,
    "CLASSIFICATION_TYPE": "U",
    "NORAD_CAT_ID": 56520,
    "ELEMENT_SET_NO": 999,
    "REV_AT_EPOCH": 13880,
    "BSTAR": 5.7678e-05,
    "MEAN_MOTION_DOT": 5.76e-06,
    "MEAN_MOTION_DDOT": 0.0,
    "TLE_LINE1": "1 56520U 23065T   25315.21553454  .00000576  00000+0  57678-4 0  9993",
    "TLE_LINE2": "2 56520  43.0035 134.0511 0000990 268.1697  91.9032 15.02536096138808",
    "COMMENT": "Grouped by shell and plane from TLE"
  },
  {
    "OBJECT_NAME": "STARLINK-6333",
    "OBJECT_ID": "23065U",
    "EPOCH": "2025-11-11T04:27:12.479904",
    "MEAN_MOTION": 15.02539262,
    "ECCENTRICITY": 0.0001203,
    "INCLINATION": 43.003,
    "RA_OF_ASC_NODE": 133.8239,
    "ARG_OF_PERICENTER": 267.7866,
    "MEAN_ANOMALY": 92.2839,
    "EPHEMERIS_TYPE": 0,
    "CLASSIFICATION_TYPE": "U",
    "NORAD_CAT_ID": 56521,
    "ELEMENT_SET_NO": 999,
    "REV_AT_EPOCH": 13880,
    "BSTAR": 3.9189e-05,
    "MEAN_MOTION_DOT": 3.26e-06,
    "MEAN_MOTION_DDOT": 0.0,
    "TLE_LINE1": "1 56521U 23065U   25315.18556111  .00000326  00000+0  39189-4 0  9993",
    "TLE_LINE2": "2 56521  43.0030 133.8239 0001203 267.7866  92.2839 15.02539262138806",
    "COMMENT": "Grouped by shell and plane from TLE"
  },
  {
    "OBJECT_NAME": "STARLINK-6327",
    "OBJECT_ID": "23065V",
    "EPOCH": "2025-11-10T19:28:00.864768",
    "MEAN_MOTION": 15.02530238,
    "ECCENTRICITY": 0.0001312,
    "INCLINATION": 43.0018,
    "RA_OF_ASC_NODE": 136.1757,
    "ARG_OF_PERICENTER": 270.4431,
    "MEAN_ANOMALY": 89.6261,
    "EPHEMERIS_TYPE": 0,
    "CLASSIFICATION_TYPE": "U",
    "NORAD_CAT_ID": 56522,
    "ELEMENT_SET_NO": 999,
    "REV_AT_EPOCH": 13874,
    "BSTAR": 2.2258000000000003e-05,
    "MEAN_MOTION_DOT": 9.7e-07,
    "MEAN_MOTION_DDOT": 0.0,
    "TLE_LINE1": "1 56522U 23065V   25314.81112112  .00000097  00000+0  22258-4 0  9996",
    "TLE_LINE2": "2 56522  43.0018 136.1757 0001312 270.4431  89.6261 15.02530238138740",
    "COMMENT": "Grouped by shell and plane from TLE"
  },
  {
    "OBJECT_NAME": "STARLINK-6328",
    "OBJECT_ID": "23065W",
    "EPOCH": "2025-11-11T04:33:35.858304",
    "MEAN_MOTION": 15.02538844,
    "ECCENTRICITY": 0.0001281,
    "INCLINATION": 43.0025,
    "RA_OF_ASC_NODE": 133.8581,
    "ARG_OF_PERICENTER": 268.1032,
    "MEAN_ANOMALY": 91.9663,
    "EPHEMERIS_TYPE": 0,
    "CLASSIFICATION_TYPE": "U",
    "NORAD_CAT_ID": 56523,
    "ELEMENT_SET_NO": 999,
    "REV_AT_EPOCH": 13880,
    "BSTAR": 8.623300000000001e-05,
    "MEAN_MOTION_DOT": 9.61e-06,
    "MEAN_MOTION_DDOT": 0.0,
    "TLE_LINE1": "1 56523U 23065W   25315.18999836  .00000961  00000+0  86233-4 0  9997",
    "TLE_LINE2": "2 56523  43.0025 133.8581 0001281 268.1032  91.9663 15.02538844138804",
    "COMMENT": "Grouped by shell and plane from TLE"
  },
  {
    "OBJECT_NAME": "STARLINK-6323",
    "OBJECT_ID": "23065X",
    "EPOCH": "2025-11-10T22:23:28.735008",
    "MEAN_MOTION": 15.02537053,
    "ECCENTRICITY": 0.0001225,
    "INCLINATION": 43.0029,
    "RA_OF_ASC_NODE": 135.373,
    "ARG_OF_PERICENTER": 263.3333,
    "MEAN_ANOMALY": 96.737,
    "EPHEMERIS_TYPE": 0,
    "CLASSIFICATION_TYPE": "U",
    "NORAD_CAT_ID": 56524,
    "ELEMENT_SET_NO": 999,
    "REV_AT_EPOCH": 13876,
    "BSTAR": 5.364900000000001e-05,
    "MEAN_MOTION_DOT": 5.21e-06,
    "MEAN_MOTION_DDOT": 0.0,
    "TLE_LINE1": "1 56524U 23065X   25314.93297147  .00000521  00000+0  53649-4 0  9993",
    "TLE_LINE2": "2 56524  43.0029 135.3730 0001225 263.3333  96.7370 15.02537053138765",
    "COMMENT": "Grouped by shell and plane from TLE"
  }
]